[{"OBJECT_NAME":"STARLINK-36657","OBJECT_ID":"2026-033Q","EPOCH":"2026-03-09T22:29:26.170944","MEAN_MOTION":15.82121331,"ECCENTRICITY":0.00018064,"INCLINATION":42.9975,"RA_OF_ASC_NODE":269.8698,"ARG_OF_PERICENTER":274.2564,"MEAN_ANOMALY":85.8101,"EPHEMERIS_TYPE":0,"CLASSIFICATION_TYPE":"U","NORAD_CAT_ID":67835,"ELEMENT_SET_NO":999,"REV_AT_EPOCH":466,"BSTAR":0.00145823,"MEAN_MOTION_DOT":0.00319701,"MEAN_MOTION_DDOT":0},{"OBJECT_NAME":"AZUR (GRS A)","OBJECT_ID":"1969-097A","EPOCH":"2026-03-09T21:41:10.048992","MEAN_MOTION":15.2598686,"ECCENTRICITY":0.02451425,"INCLINATION":102.6572,"RA_OF_ASC_NODE":142.7505,"ARG_OF_PERICENTER":125.1196,"MEAN_ANOMALY":237.3267,"EPHEMERIS_TYPE":0,"CLASSIFICATION_TYPE":"U","NORAD_CAT_ID":4221,"ELEMENT_SET_NO":999,"REV_AT_EPOCH":71023,"BSTAR":0.0010311441,"MEAN_MOTION_DOT":0.00065195,"MEAN_MOTION_DDOT":0}]
